ASTERIA                 
1 43020U 98067NH  18283.09551100  .00020708  00000-0  23857-3 0  9997
2 43020  51.6408 156.0674 0002020 225.9168 134.1660 15.61930208 50439
DELLINGR (RBLE)         
1 43021U 98067NJ  18283.11963723  .00010894  00000-0  14332-3 0  9992
2 43021  51.6389 159.1801 0001995 213.2005 146.8863 15.59036983 50398
OSIRIS-3U               
1 43027U 98067NL  18283.21596878  .00070155  00000-0  52636-3 0  9997
2 43027  51.6354 145.4988 0003668 203.5077 156.5754 15.71948963 50469
AEROCUBE 7B             
1 43042U 17071F   18282.91119302  .00005580  00000-0  14960-3 0  9997
2 43042  51.6388 202.3409 0004553 329.8770  30.1953 15.39548532 47275
AEROCUBE 7C             
1 43043U 17071G   18282.91113944  .00005656  00000-0  15148-3 0  9997
2 43043  51.6391 202.3478 0004676 331.4468  28.6259 15.39551923 47241
CHEFSAT                 
1 43044U 17071H   18282.83776545  .00008501  00000-0  21290-3 0  9998
2 43044  51.6397 201.1515 0004533 331.3823  28.6913 15.40910790 47254
ASGARDIA 1              
1 43049U 17071N   18282.94754983  .00004453  00000-0  12098-3 0  9995
2 43049  51.6392 201.8517 0002438   0.9664 359.1324 15.39665524 47255
ISARA                   
1 43050U 17071P   18282.91928190  .00008855  00000-0  22324-3 0  9990
2 43050  51.6388 200.9322 0002246 359.4765   0.6217 15.40652736 47260
FAUNA                   
1 43052U 17071R   18282.85990049  .00006126  00000-0  16171-3 0  9999
2 43052  51.6392 202.0283 0002263 356.9819   3.1152 15.39837984 47238
CORVUS BC3              
1 43118U 18004H   18283.17020020  .00001032  00000-0  47663-4 0  9990
2 43118  97.5212 345.9207 0011938  58.1612 302.0785 15.22431610 41207
MICROMAS-2A             
1 43131U 18004W   18282.94968134  .00002834  00000-0  12274-3 0  9996
2 43131  97.5226 345.9356 0011086  62.2574 297.9786 15.23193479 41188
GOMX4-B                 
1 43196U 18015E   18282.93825909  .00000461  00000-0  22013-4 0  9997
2 43196  97.3604  49.6205 0020226 111.9507 248.3881 15.23764942 38004
GOMX4-A                 
1 43197U 18015F   18283.21262052  .00000530  00000-0  24843-4 0  9994
2 43197  97.3618  49.8938 0020972 111.5704 335.2193 15.23784730 38052
1KUNS-PF                
1 43466U 98067NP  18283.20575869  .00020059  00000-0  26698-3 0  9997
2 43466  51.6387 162.7455 0001150 140.1931 219.9146 15.58145765 23612
UBAKUSAT                
1 43467U 98067NQ  18283.04020747  .00013778  00000-0  19065-3 0  9990
2 43467  51.6391 163.8927 0002813 181.0644 179.0343 15.57417591 23596
BATSU-CS1 (IRAZU)       
1 43468U 98067NR  18282.92194910  .00022709  00000-0  29485-3 0  9992
2 43468  51.6391 163.8502 0001308 136.8223 223.2872 15.58722835123563
CUBERRT                 
1 43546U 98067NU  18283.10941224  .00023509  00000-0  33378-3 0  9993
2 43546  51.6387 165.0950 0005148 260.6439  99.3971 15.56287018 13711
TEMPEST-D               
1 43547U 98067NV  18282.93315488  .00005774  00000-0  90189-4 0  9999
2 43547  51.6389 166.1657 0005190 263.0866  96.9535 15.55402558 13365
RAINCUBE                
1 43548U 98067NW  18282.92622421  .00013660  00000-0  19985-3 0  9994
2 43548  51.6388 166.1200 0005035 269.5733  90.4682 15.55905685 13812
HALOSAT                 
1 43549U 98067NX  18282.92661084  .00015446  00000-0  22510-3 0  9995
2 43549  51.6389 166.1228 0005063 271.7890  88.2521 15.55896001 13373
ENDUROSAT ONE           
1 43551U 98067NZ  18282.90680140  .00015940  00000-0  22804-3 0  9995
2 43551  51.6385 165.9902 0005438 279.2680  80.7697 15.56369929 13785
EQUISAT                 
1 43552U 98067PA  18282.91098388  .00013542  00000-0  19620-3 0  9992
2 43552  51.6388 166.0194 0005714 280.4323  79.6025 15.56176884 13743
AEROCUBE 12A            
1 43556U 18046C   18282.90132959  .00001262  00000-0  58495-4 0  9997
2 43556  51.6414 183.7019 0007744 249.5674 110.4474 15.27886894 13052
AEROCUBE 12B            
1 43557U 18046D   18282.90185517  .00000827  00000-0  42805-4 0  9990
2 43557  51.6425 183.7049 0007844 249.4325 110.5813 15.27857366 13006
UITMSAT-1               
1 43589U 98067PD  18283.13938384  .00015802  00000-0  23129-3 0  9996
2 43589  51.6385 165.2916 0005066 291.4224  68.6226 15.55756947  9519
MAYA-1                  
1 43590U 98067PE  18283.13828409  .00015675  00000-0  22926-3 0  9996
2 43590  51.6385 165.2845 0005136 292.3064  67.7383 15.55784275  9443
BHUTAN-1                
1 43591U 98067PF  18282.94411188  .00015951  00000-0  23287-3 0  9995
2 43591  51.6387 166.2378 0005222 293.1025  66.9416 15.55818225  9418
SIRIUSSAT-1             
1 43595U 98067PG  18282.89750130  .00014718  00000-0  21906-3 0  9992
2 43595  51.6388 166.6721 0003164 229.8206 130.2508 15.55367346  8586
SIRIUSSAT-2             
1 43596U 98067PH  18282.90239973  .00014321  00000-0  21447-3 0  9992
2 43596  51.6396 166.7103 0003768 235.6627 124.4008 15.55222219  8582
TANUSHA-3               
1 43597U 98067PJ  18282.89939686  .00017624  00000-0  26046-3 0  9998
2 43597  51.6377 166.6804 0003031 247.8384 112.2285 15.55407764  8589
SURFSAT                 
1 43614U 18070B   18283.20747376  .00003080  00000-0  87036-4 0  9991
2 43614  93.0251 259.7252 0015647 185.7752 174.3334 15.36291031  3784
CP-7 (DAVE)             
1 43615U 18070C   18283.14217472  .00002796  00000-0  79023-4 0  9994
2 43615  93.0248 259.6982 0015541 185.5652 174.5466 15.36297831  3771
ELFIN-B                 
1 43616U 18070D   18282.42474824 -.00000006  00000-0  00000-0 0  9999
2 43616  93.0242 259.3858 0017166 191.9483 168.1354 15.36344462  3669
ELFIN-A                 
1 43617U 18070E   18282.48956835 -.00000006  00000-0  00000-0 0  9993
2 43617  93.0272 259.4375 0016636 186.9041 173.2099 15.36374779  3671
